SL-14 R/B               
1 16792U 86046B   26013.77734346  .00000376  00000+0  40450-4 0  9994
2 16792  82.4834 132.0595 0024253  51.9443 308.3957 14.85526673118252
SL-14 R/B               
1 16882U 86055B   26013.85201118  .00000436  00000+0  47485-4 0  9991
2 16882  82.5205 178.1971 0019651 149.8719 325.0098 14.85570307111228
AJISAI (EGS)            
1 16908U 86061A   26014.19085829 -.00000077  00000+0  14510-3 0  9998
2 16908  50.0082 260.9338 0011306 147.3733 298.9226 12.44514891461212
COSMOS 1812             
1 17295U 87003A   26014.10649746  .00109588  00000+0  48990-3 0  9995
2 17295  82.4836 256.7768 0002830  49.4523 310.6992 15.83889970135768
SL-14 R/B               
1 17567U 87024B   26013.83070680  .00000423  00000+0  45424-4 0  9992
2 17567  82.5298 144.3095 0019730  83.2005 277.1455 14.86066733 79984
COSMOS 1833             
1 17589U 87027A   26014.13990468  .00000299  00000+0  18530-3 0  9996
2 17589  70.9191  80.6714 0024071 287.0317  72.8166 14.13043312  2618
SL-16 R/B               
1 17590U 87027B   26014.13037222 -.00000004  00000+0  21812-4 0  9991
2 17590  71.0033  31.4633 0006503 225.1332 134.9264 14.17160390  7615
SL-14 R/B               
1 17912U 87038B   26014.20161425  .00000412  00000+0  45058-4 0  9992
2 17912  82.5023 348.1222 0018990 349.6857  10.3966 14.85299942 71144
COSMOS 1844             
1 17973U 87041A   26013.80830577 -.00000215  00000+0 -86368-4 0  9991
2 17973  70.8996 149.9343 0028309 106.0442 254.3801 14.14538336995824
SL-14 R/B               
1 18153U 87055B   26014.12052779  .00000326  00000+0  34817-4 0  9996
2 18153  82.4977  40.4656 0020361 189.7810 170.3013 14.85557872 61833
COSMOS 1867             
1 18187U 87060A   26014.22852251 -.00000053  00000+0  17683-4 0  9993
2 18187  65.0111  99.2221 0013840 274.2681  85.6822 14.31492580 12148
SL-14 R/B               
1 18749U 88001B   26014.11223872  .00000330  00000+0  35348-4 0  9997
2 18749  82.5115 246.7000 0019440  61.1312 299.1851 14.85460795 33925
