CCSDS_OMM_VERS = 2.0
CREATION_DATE  = 
ORIGINATOR     = 

OBJECT_NAME    = SL-14 R/B
OBJECT_ID      = 1986-046B
CENTER_NAME    = EARTH
REF_FRAME      = TEME
TIME_SYSTEM    = UTC
MEAN_ELEMENT_THEORY = SGP/SGP4

EPOCH          = 2026-01-13T18:39:22.474944
MEAN_MOTION    = 14.85526673
ECCENTRICITY   = .00242531
INCLINATION    = 82.4834
RA_OF_ASC_NODE = 132.0595
ARG_OF_PERICENTER = 51.9443
MEAN_ANOMALY   = 308.3957

EPHEMERIS_TYPE = 0
CLASSIFICATION_TYPE = U
NORAD_CAT_ID   = 16792
ELEMENT_SET_NO = 999
REV_AT_EPOCH   = 11825
BSTAR          = .40449813E-4
MEAN_MOTION_DOT = .376E-5
MEAN_MOTION_DDOT = 0

CCSDS_OMM_VERS = 2.0
CREATION_DATE  = 
ORIGINATOR     = 

OBJECT_NAME    = SL-14 R/B
OBJECT_ID      = 1986-055B
CENTER_NAME    = EARTH
REF_FRAME      = TEME
TIME_SYSTEM    = UTC
MEAN_ELEMENT_THEORY = SGP/SGP4

EPOCH          = 2026-01-13T20:26:53.765952
MEAN_MOTION    = 14.85570307
ECCENTRICITY   = .00196518
INCLINATION    = 82.5205
RA_OF_ASC_NODE = 178.1971
ARG_OF_PERICENTER = 149.8719
MEAN_ANOMALY   = 325.0098

EPHEMERIS_TYPE = 0
CLASSIFICATION_TYPE = U
NORAD_CAT_ID   = 16882
ELEMENT_SET_NO = 999
REV_AT_EPOCH   = 11122
BSTAR          = .47484978E-4
MEAN_MOTION_DOT = .436E-5
MEAN_MOTION_DDOT = 0

CCSDS_OMM_VERS = 2.0
CREATION_DATE  = 
ORIGINATOR     = 

OBJECT_NAME    = AJISAI (EGS)
OBJECT_ID      = 1986-061A
CENTER_NAME    = EARTH
REF_FRAME      = TEME
TIME_SYSTEM    = UTC
MEAN_ELEMENT_THEORY = SGP/SGP4

EPOCH          = 2026-01-14T04:34:50.156256
MEAN_MOTION    = 12.44514891
ECCENTRICITY   = .00113061
INCLINATION    = 50.0082
RA_OF_ASC_NODE = 260.9338
ARG_OF_PERICENTER = 147.3733
MEAN_ANOMALY   = 298.9226

EPHEMERIS_TYPE = 0
CLASSIFICATION_TYPE = U
NORAD_CAT_ID   = 16908
ELEMENT_SET_NO = 999
REV_AT_EPOCH   = 46121
BSTAR          = .14509888E-3
MEAN_MOTION_DOT = -.77E-6
MEAN_MOTION_DDOT = 0

CCSDS_OMM_VERS = 2.0
CREATION_DATE  = 
ORIGINATOR     = 

OBJECT_NAME    = COSMOS 1812
OBJECT_ID      = 1987-003A
CENTER_NAME    = EARTH
REF_FRAME      = TEME
TIME_SYSTEM    = UTC
MEAN_ELEMENT_THEORY = SGP/SGP4

EPOCH          = 2026-01-14T02:33:21.380544
MEAN_MOTION    = 15.83889970
ECCENTRICITY   = .00028304
INCLINATION    = 82.4836
RA_OF_ASC_NODE = 256.7768
ARG_OF_PERICENTER = 49.4523
MEAN_ANOMALY   = 310.6992

EPHEMERIS_TYPE = 0
CLASSIFICATION_TYPE = U
NORAD_CAT_ID   = 17295
ELEMENT_SET_NO = 999
REV_AT_EPOCH   = 13576
BSTAR          = .48989658E-3
MEAN_MOTION_DOT = .109588E-2
MEAN_MOTION_DDOT = 0

CCSDS_OMM_VERS = 2.0
CREATION_DATE  = 
ORIGINATOR     = 

OBJECT_NAME    = SL-14 R/B
OBJECT_ID      = 1987-024B
CENTER_NAME    = EARTH
REF_FRAME      = TEME
TIME_SYSTEM    = UTC
MEAN_ELEMENT_THEORY = SGP/SGP4

EPOCH          = 2026-01-13T19:56:13.067520
MEAN_MOTION    = 14.86066733
ECCENTRICITY   = .001973
INCLINATION    = 82.5298
RA_OF_ASC_NODE = 144.3095
ARG_OF_PERICENTER = 83.2005
MEAN_ANOMALY   = 277.1455

EPHEMERIS_TYPE = 0
CLASSIFICATION_TYPE = U
NORAD_CAT_ID   = 17567
ELEMENT_SET_NO = 999
REV_AT_EPOCH   = 7998
BSTAR          = .45423915E-4
MEAN_MOTION_DOT = .423E-5
MEAN_MOTION_DDOT = 0

CCSDS_OMM_VERS = 2.0
CREATION_DATE  = 
ORIGINATOR     = 

OBJECT_NAME    = COSMOS 1833
OBJECT_ID      = 1987-027A
CENTER_NAME    = EARTH
REF_FRAME      = TEME
TIME_SYSTEM    = UTC
MEAN_ELEMENT_THEORY = SGP/SGP4

EPOCH          = 2026-01-14T03:21:27.764352
MEAN_MOTION    = 14.13043312
ECCENTRICITY   = .00240717
INCLINATION    = 70.9191
RA_OF_ASC_NODE = 80.6714
ARG_OF_PERICENTER = 287.0317
MEAN_ANOMALY   = 72.8166

EPHEMERIS_TYPE = 0
CLASSIFICATION_TYPE = U
NORAD_CAT_ID   = 17589
ELEMENT_SET_NO = 999
REV_AT_EPOCH   = 261
BSTAR          = .18530178E-3
MEAN_MOTION_DOT = .299E-5
MEAN_MOTION_DDOT = 0

CCSDS_OMM_VERS = 2.0
CREATION_DATE  = 
ORIGINATOR     = 

OBJECT_NAME    = SL-16 R/B
OBJECT_ID      = 1987-027B
CENTER_NAME    = EARTH
REF_FRAME      = TEME
TIME_SYSTEM    = UTC
MEAN_ELEMENT_THEORY = SGP/SGP4

EPOCH          = 2026-01-14T03:07:44.159808
MEAN_MOTION    = 14.17160390
ECCENTRICITY   = .00065036
INCLINATION    = 71.0033
RA_OF_ASC_NODE = 31.4633
ARG_OF_PERICENTER = 225.1332
MEAN_ANOMALY   = 134.9264

EPHEMERIS_TYPE = 0
CLASSIFICATION_TYPE = U
NORAD_CAT_ID   = 17590
ELEMENT_SET_NO = 999
REV_AT_EPOCH   = 761
BSTAR          = .21812365E-4
MEAN_MOTION_DOT = -.4E-7
MEAN_MOTION_DDOT = 0

CCSDS_OMM_VERS = 2.0
CREATION_DATE  = 
ORIGINATOR     = 

OBJECT_NAME    = SL-14 R/B
OBJECT_ID      = 1987-038B
CENTER_NAME    = EARTH
REF_FRAME      = TEME
TIME_SYSTEM    = UTC
MEAN_ELEMENT_THEORY = SGP/SGP4

EPOCH          = 2026-01-14T04:50:19.471200
MEAN_MOTION    = 14.85299942
ECCENTRICITY   = .00189907
INCLINATION    = 82.5023
RA_OF_ASC_NODE = 348.1222
ARG_OF_PERICENTER = 349.6857
MEAN_ANOMALY   = 10.3966

EPHEMERIS_TYPE = 0
CLASSIFICATION_TYPE = U
NORAD_CAT_ID   = 17912
ELEMENT_SET_NO = 999
REV_AT_EPOCH   = 7114
BSTAR          = .45058257E-4
MEAN_MOTION_DOT = .412E-5
MEAN_MOTION_DDOT = 0

CCSDS_OMM_VERS = 2.0
CREATION_DATE  = 
ORIGINATOR     = 

OBJECT_NAME    = COSMOS 1844
OBJECT_ID      = 1987-041A
CENTER_NAME    = EARTH
REF_FRAME      = TEME
TIME_SYSTEM    = UTC
MEAN_ELEMENT_THEORY = SGP/SGP4

EPOCH          = 2026-01-13T19:23:57.618528
MEAN_MOTION    = 14.14538336
ECCENTRICITY   = .00283095
INCLINATION    = 70.8996
RA_OF_ASC_NODE = 149.9343
ARG_OF_PERICENTER = 106.0442
MEAN_ANOMALY   = 254.3801

EPHEMERIS_TYPE = 0
CLASSIFICATION_TYPE = U
NORAD_CAT_ID   = 17973
ELEMENT_SET_NO = 999
REV_AT_EPOCH   = 99582
BSTAR          = -.86368143E-4
MEAN_MOTION_DOT = -.215E-5
MEAN_MOTION_DDOT = 0

CCSDS_OMM_VERS = 2.0
CREATION_DATE  = 
ORIGINATOR     = 

OBJECT_NAME    = SL-14 R/B
OBJECT_ID      = 1987-055B
CENTER_NAME    = EARTH
REF_FRAME      = TEME
TIME_SYSTEM    = UTC
MEAN_ELEMENT_THEORY = SGP/SGP4

EPOCH          = 2026-01-14T02:53:33.601056
MEAN_MOTION    = 14.85557872
ECCENTRICITY   = .00203617
INCLINATION    = 82.4977
RA_OF_ASC_NODE = 40.4656
ARG_OF_PERICENTER = 189.7810
MEAN_ANOMALY   = 170.3013

EPHEMERIS_TYPE = 0
CLASSIFICATION_TYPE = U
NORAD_CAT_ID   = 18153
ELEMENT_SET_NO = 999
REV_AT_EPOCH   = 6183
BSTAR          = .34816504E-4
MEAN_MOTION_DOT = .326E-5
MEAN_MOTION_DDOT = 0

CCSDS_OMM_VERS = 2.0
CREATION_DATE  = 
ORIGINATOR     = 

OBJECT_NAME    = COSMOS 1867
OBJECT_ID      = 1987-060A
CENTER_NAME    = EARTH
REF_FRAME      = TEME
TIME_SYSTEM    = UTC
MEAN_ELEMENT_THEORY = SGP/SGP4

EPOCH          = 2026-01-14T05:29:04.344864
MEAN_MOTION    = 14.31492580
ECCENTRICITY   = .00138406
INCLINATION    = 65.0111
RA_OF_ASC_NODE = 99.2221
ARG_OF_PERICENTER = 274.2681
MEAN_ANOMALY   = 85.6822

EPHEMERIS_TYPE = 0
CLASSIFICATION_TYPE = U
NORAD_CAT_ID   = 18187
ELEMENT_SET_NO = 999
REV_AT_EPOCH   = 1214
BSTAR          = .17682836E-4
MEAN_MOTION_DOT = -.53E-6
MEAN_MOTION_DDOT = 0

CCSDS_OMM_VERS = 2.0
CREATION_DATE  = 
ORIGINATOR     = 

OBJECT_NAME    = SL-14 R/B
OBJECT_ID      = 1988-001B
CENTER_NAME    = EARTH
REF_FRAME      = TEME
TIME_SYSTEM    = UTC
MEAN_ELEMENT_THEORY = SGP/SGP4

EPOCH          = 2026-01-14T02:41:37.425408
MEAN_MOTION    = 14.85460795
ECCENTRICITY   = .00194401
INCLINATION    = 82.5115
RA_OF_ASC_NODE = 246.7000
ARG_OF_PERICENTER = 61.1312
MEAN_ANOMALY   = 299.1851

EPHEMERIS_TYPE = 0
CLASSIFICATION_TYPE = U
NORAD_CAT_ID   = 18749
ELEMENT_SET_NO = 999
REV_AT_EPOCH   = 3392
BSTAR          = .35347917E-4
MEAN_MOTION_DOT = .33E-5
MEAN_MOTION_DDOT = 0

